[{"OBJECT_NAME":"STARLINK-5874","OBJECT_ID":"2023-058AN","EPOCH":"2026-03-09T22:41:33.227808","MEAN_MOTION":15.0126198,"ECCENTRICITY":0.00027368,"INCLINATION":97.6041,"RA_OF_ASC_NODE":70.5404,"ARG_OF_PERICENTER":84.1186,"MEAN_ANOMALY":276.0351,"EPHEMERIS_TYPE":0,"CLASSIFICATION_TYPE":"U","NORAD_CAT_ID":56353,"ELEMENT_SET_NO":999,"REV_AT_EPOCH":15817,"BSTAR":2.6054595e-5,"MEAN_MOTION_DOT":2.76e-6,"MEAN_MOTION_DDOT":0},{"OBJECT_NAME":"COSMOS 2251 DEB","OBJECT_ID":"1993-036APC","EPOCH":"2026-03-07T07:06:21.229920","MEAN_MOTION":14.8796969,"ECCENTRICITY":0.0085938,"INCLINATION":74.0103,"RA_OF_ASC_NODE":270.9975,"ARG_OF_PERICENTER":352.1798,"MEAN_ANOMALY":7.8035,"EPHEMERIS_TYPE":0,"CLASSIFICATION_TYPE":"U","NORAD_CAT_ID":35661,"ELEMENT_SET_NO":999,"REV_AT_EPOCH":89125,"BSTAR":0.00081888,"MEAN_MOTION_DOT":8.012e-5,"MEAN_MOTION_DDOT":0}]
